IRIDIUM 126             
1 42809U 17039G   25287.21462408  .00000157  00000+0  48880-4 0  9998
2 42809  86.3916  96.4794 0002322  90.5121 269.6341 14.34218115434691
IRIDIUM 124             
1 42810U 17039H   25287.27456182  .00000559  00000+0  16010-3 0  9993
2 42810  86.4530  33.1523 0002113  90.3250 269.8193 14.43284188439643
IRIDIUM 128             
1 42811U 17039J   25287.27512858  .00000118  00000+0  35104-4 0  9994
2 42811  86.3948 127.9837 0001920  76.0785 284.0625 14.34214496434734
IRIDIUM 121             
1 42812U 17039K   25287.23364454  .00000041  00000+0  74967-5 0  9994
2 42812  86.3913  96.4974 0001941  88.6169 271.5249 14.34218046434577
IRIDIUM 133             
1 42955U 17061A   25287.30683802  .00000112  00000+0  32970-4 0  9992
2 42955  86.3948 128.0821 0002085  85.4340 274.7094 14.34217666419531
IRIDIUM 100             
1 42956U 17061B   25287.30049575  .00000141  00000+0  43451-4 0  9994
2 42956  86.3947 128.0092 0002230  83.9806 276.1644 14.34217765419530
IRIDIUM 122             
1 42957U 17061C   25287.26878293  .00000137  00000+0  41971-4 0  9997
2 42957  86.3948 128.0220 0002191  84.7367 275.4079 14.34217852419533
IRIDIUM 129             
1 42958U 17061D   25287.29414898  .00000106  00000+0  30903-4 0  9997
2 42958  86.3948 128.0757 0002269  97.2714 262.8740 14.34217083419553
